CCSDS_OEM_VERS = 1.0
CREATION_DATE  = 2017-05-11T12:03:02
ORIGINATOR     = GMAT USER

META_START
OBJECT_NAME          = MOPSSat_alt_35785_km_RAAN_270_121
OBJECT_ID            = SatId
CENTER_NAME          = Earth
REF_FRAME            = EME2000
TIME_SYSTEM          = UTC
START_TIME           = 2017-01-01T00:00:00.000
USEABLE_START_TIME   = 2017-01-01T00:00:00.000
USEABLE_STOP_TIME    = 2017-01-02T00:00:00.000
STOP_TIME            = 2017-01-02T00:00:00.000
INTERPOLATION        = Lagrange
INTERPOLATION_DEGREE = 7 
META_STOP


                                                                                   

2017-01-01T15:16:40.000  -2.532226937171454e+04   4.540112001549776e+04   9.136387855884324e-01  -1.848498712346927e+00  -1.569840308081052e+00   1.072983274989797e-04
2017-01-01T15:16:50.000  -2.534075076590709e+04   4.538541517179397e+04   9.147118645663702e-01  -1.847779941918114e+00  -1.571128362109076e+00   1.073174573795802e-04
2017-01-01T15:17:00.000  -2.535922496875444e+04   4.536969744806372e+04   9.157851346313437e-01  -1.847060451567403e+00  -1.572416320365147e+00   1.073365453809646e-04
2017-01-01T15:17:10.000  -2.537769197298381e+04   4.535396684532682e+04   9.168585953601802e-01  -1.846340240985282e+00  -1.573704182650075e+00   1.073555914622054e-04
2017-01-01T15:17:20.000  -2.539615177134108e+04   4.533822336458742e+04   9.179322463305309e-01  -1.845619309861114e+00  -1.574991948765816e+00   1.073745955823751e-04
2017-01-01T15:17:30.000  -2.541460435661205e+04   4.532246700681475e+04   9.190060871221475e-01  -1.844897657882243e+00  -1.576279618516979e+00   1.073935577005593e-04
2017-01-01T15:17:40.000  -2.543304972156647e+04   4.530669777299125e+04   9.200801173136147e-01  -1.844175284736199e+00  -1.577567191706911e+00   1.074124777758018e-04
2017-01-01T15:17:50.000  -2.545148785920054e+04   4.529091566390352e+04   9.211543364965222e-01  -1.843452190101114e+00  -1.578854668154664e+00   1.074313557673436e-04
2017-01-01T15:18:00.000  -2.546991876244295e+04   4.527512068039549e+04   9.222287442582928e-01  -1.842728373657325e+00  -1.580142047674434e+00   1.074501916343315e-04
2017-01-01T15:18:10.000  -2.548834242426606e+04   4.525931282327280e+04   9.233033401886708e-01  -1.842003835082996e+00  -1.581429330083332e+00   1.074689853359289e-04
2017-01-01T15:18:20.000  -2.550675883725509e+04   4.524349209367233e+04   9.243781238546001e-01  -1.841278574071050e+00  -1.582716515171285e+00   1.074877368308821e-04
2017-01-01T15:18:30.000  -2.552516799403891e+04   4.522765849269283e+04   9.254530948253418e-01  -1.840552590312243e+00  -1.584003602731137e+00   1.075064460779545e-04
2017-01-01T15:18:40.000  -2.554356988717891e+04   4.521181202149015e+04   9.265282526659947e-01  -1.839825883499527e+00  -1.585290592550872e+00   1.075251130358143e-04
2017-01-01T15:18:50.000  -2.556196450946349e+04   4.519595268102566e+04   9.276035969546395e-01  -1.839098453316526e+00  -1.586577484434184e+00   1.075437376633316e-04
2017-01-01T15:19:00.000  -2.558035185366486e+04   4.518008047227359e+04   9.286791272681935e-01  -1.838370299447027e+00  -1.587864278183495e+00   1.075623199193333e-04
2017-01-01T15:19:10.000  -2.559873191259509e+04   4.516419539617332e+04   9.297548431856700e-01  -1.837641421572804e+00  -1.589150973603879e+00   1.075808597626594e-04
2017-01-01T15:19:20.000  -2.561710467908402e+04   4.514829745364709e+04   9.308307442869280e-01  -1.836911819374411e+00  -1.590437570501533e+00   1.075993571521422e-04
2017-01-01T15:19:30.000  -2.563547014596934e+04   4.513238664560972e+04   9.319068301520540e-01  -1.836181492531640e+00  -1.591724068683062e+00   1.076178120465946e-04
2017-01-01T15:19:40.000  -2.565382830607458e+04   4.511646297298757e+04   9.329831003600796e-01  -1.835450440724389e+00  -1.593010467953941e+00   1.076362244047886e-04
2017-01-01T15:19:50.000  -2.567217915219846e+04   4.510052643672664e+04   9.340595544883860e-01  -1.834718663633032e+00  -1.594296768117785e+00   1.076545941854405e-04
2017-01-01T15:20:00.000  -2.569052267709372e+04   4.508457703781244e+04   9.351361921114242e-01  -1.833986160939331e+00  -1.595582968974848e+00   1.076729213471940e-04
2017-01-01T15:20:10.000  -2.570885887352274e+04   4.506861477722100e+04   9.362130128039924e-01  -1.833252932324188e+00  -1.596869070325917e+00   1.076912058486746e-04
2017-01-01T15:20:20.000  -2.572718773401654e+04   4.505263965613055e+04   9.372900161270261e-01  -1.832518977477376e+00  -1.598155071955384e+00   1.077094476482535e-04
2017-01-01T15:20:30.000  -2.574550925116691e+04   4.503665167566531e+04   9.383672016448116e-01  -1.831784296085770e+00  -1.599440973651765e+00   1.077276467043348e-04
2017-01-01T15:20:40.000  -2.576382341751771e+04   4.502065083699069e+04   9.394445689185870e-01  -1.831048887837704e+00  -1.600726775200071e+00   1.077458029752475e-04
2017-01-01T15:20:50.000  -2.578213022598616e+04   4.500463714094539e+04   9.405221175313210e-01  -1.830312752406075e+00  -1.602012476411378e+00   1.077639164196650e-04
2017-01-01T15:21:00.000  -2.580042966944261e+04   4.498861058840814e+04   9.415998470629978e-01  -1.829575889465197e+00  -1.603298077093328e+00   1.077819869961859e-04
2017-01-01T15:21:10.000  -2.581872174080577e+04   4.497257118021490e+04   9.426777570962133e-01  -1.828838298686995e+00  -1.604583577056812e+00   1.078000146634307e-04
2017-01-01T15:21:20.000  -2.583700643280489e+04   4.495651891736494e+04   9.437558472022393e-01  -1.828099979750455e+00  -1.605868976099313e+00   1.078179993797978e-04
2017-01-01T15:21:30.000  -2.585528373815661e+04   4.494045380086817e+04   9.448341169513627e-01  -1.827360932334638e+00  -1.607154274017270e+00   1.078359411036479e-04
2017-01-01T15:21:40.000  -2.587355364956464e+04   4.492437583174466e+04   9.459125659128945e-01  -1.826621156118637e+00  -1.608439470606081e+00   1.078538397932992e-04
2017-01-01T15:21:50.000  -2.589181615954497e+04   4.490828501118083e+04   9.469911936447755e-01  -1.825880650788788e+00  -1.609724565647754e+00   1.078716954068678e-04
2017-01-01T15:22:00.000  -2.591007126066160e+04   4.489218134031966e+04   9.480699997075684e-01  -1.825139416028999e+00  -1.611009558927536e+00   1.078895079024870e-04
2017-01-01T15:22:10.000  -2.592831894543359e+04   4.487606482034310e+04   9.491489836589466e-01  -1.824397451524542e+00  -1.612294450227366e+00   1.079072772382206e-04
2017-01-01T15:22:20.000  -2.594655920674682e+04   4.485993545210854e+04   9.502281450780422e-01  -1.823654756945322e+00  -1.613579239354862e+00   1.079250033724562e-04
2017-01-01T15:22:30.000  -2.596479203744217e+04   4.484379323651220e+04   9.513074835411007e-01  -1.822911331962601e+00  -1.614863926114333e+00   1.079426862635108e-04
2017-01-01T15:22:40.000  -2.598301743040870e+04   4.482763817440723e+04   9.523869986269812e-01  -1.822167176245235e+00  -1.616148510313324e+00   1.079603258697202e-04
2017-01-01T15:22:50.000  -2.600123537834663e+04   4.481147026681120e+04   9.534666899031988e-01  -1.821422289469205e+00  -1.617432991745973e+00   1.079779221492114e-04
2017-01-01T15:23:00.000  -2.601944587394357e+04   4.479528951475253e+04   9.545465569362810e-01  -1.820676671310571e+00  -1.618717370205377e+00   1.079954750600711e-04
2017-01-01T15:23:10.000  -2.603764890987421e+04   4.477909591926988e+04   9.556265992917746e-01  -1.819930321445424e+00  -1.620001645483579e+00   1.080129845603459e-04
2017-01-01T15:23:20.000  -2.605584447862619e+04   4.476288948156941e+04   9.567068165238398e-01  -1.819183239557169e+00  -1.621285817359239e+00   1.080304506078727e-04
2017-01-01T15:23:30.000  -2.607403257273496e+04   4.474667020281358e+04   9.577872081892570e-01  -1.818435425326755e+00  -1.622569885614250e+00   1.080478731605069e-04
2017-01-01T15:23:40.000  -2.609221318468931e+04   4.473043808420573e+04   9.588677738418093e-01  -1.817686878436591e+00  -1.623853850027065e+00   1.080652521760304e-04
2017-01-01T15:23:50.000  -2.611038630734866e+04   4.471419312661770e+04   9.599485130570694e-01  -1.816937598553364e+00  -1.625137710402155e+00   1.080825876125573e-04
2017-01-01T15:24:00.000  -2.612855193352463e+04   4.469793533096294e+04   9.610294254075509e-01  -1.816187585345256e+00  -1.626421466540474e+00   1.080998794281268e-04
2017-01-01T15:24:10.000  -2.614671005608923e+04   4.468166469810052e+04   9.621105104691187e-01  -1.815436838477502e+00  -1.627705118247083e+00   1.081171275808093e-04
2017-01-01T15:24:20.000  -2.616486066768394e+04   4.466538122909324e+04   9.631917678037475e-01  -1.814685357624301e+00  -1.628988665310643e+00   1.081343320284189e-04
2017-01-01T15:24:30.000  -2.618300376095989e+04   4.464908492499492e+04   9.642731969737466e-01  -1.813933142458999e+00  -1.630272107520336e+00   1.081514927287529e-04
2017-01-01T15:24:40.000  -2.620113932852419e+04   4.463277578689768e+04   9.653547975385849e-01  -1.813180192656280e+00  -1.631555444662092e+00   1.081686096395370e-04
2017-01-01T15:24:50.000  -2.621926736295498e+04   4.461645381591991e+04   9.664365690557433e-01  -1.812426507891616e+00  -1.632838676519615e+00   1.081856827184487e-04
2017-01-01T15:25:00.000  -2.623738785681911e+04   4.460011901318937e+04   9.675185110818012e-01  -1.811672087840475e+00  -1.634121802875660e+00   1.082027119231257e-04
2017-01-01T15:25:10.000  -2.625550080267860e+04   4.458377137983722e+04   9.686006231728250e-01  -1.810916932178052e+00  -1.635404823512491e+00   1.082196972111738e-04
2017-01-01T15:25:20.000  -2.627360619315580e+04   4.456741091694025e+04   9.696829048882319e-01  -1.810161040576595e+00  -1.636687738216478e+00   1.082366385402237e-04
2017-01-01T15:25:30.000  -2.629170402088979e+04   4.455103762555895e+04   9.707653557882178e-01  -1.809404412707176e+00  -1.637970546775028e+00   1.082535358678943e-04
2017-01-01T15:25:40.000  -2.630979427853648e+04   4.453465150673803e+04   9.718479754337536e-01  -1.808647048239691e+00  -1.639253248976586e+00   1.082703891517912e-04
